ONEWEB-0456             
1 51646U 22012AA  24035.89237388 -.00000520  00000+0 -15267-2 0  9992
2 51646  87.8904 207.7363 0001634  79.4954 280.6357 13.10375590 96280
ONEWEB-0457             
1 51647U 22012AB  24036.02234940 -.00000155  00000+0 -48051-3 0  9992
2 51647  87.8910 207.7218 0001299 110.7416 249.3850 13.10370306 97603
ONEWEB-0458             
1 51648U 22012AC  24035.96710990 -.00000046  00000+0 -16759-3 0  9998
2 51648  87.8917 207.7473 0002093 109.2948 250.8405 13.10371075 97551
ONEWEB-0461             
1 51649U 22012AD  24036.36618763  .00000139  00000+0  32556-3 0  9993
2 51649  87.9240 177.4541 0001300 102.8672 257.2605 13.17649040101550
ONEWEB-0463             
1 51650U 22012AE  24035.89315734  .00000025  00000+0  31580-4 0  9995
2 51650  87.9239 177.5883 0001487 105.9255 254.2040 13.17652852101282
ONEWEB-0464             
1 51651U 22012AF  24035.88750876  .00000130  00000+0  33738-3 0  9998
2 51651  87.8914 207.7514 0001815  81.8162 278.3171 13.10370836 96268
ONEWEB-0468             
1 51652U 22012AG  24035.89399085 -.00000513  00000+0 -15064-2 0  9999
2 51652  87.8917 207.7429 0001603  94.7261 265.4049 13.10375059 96246
ONEWEB-0473             
1 51653U 22012AH  24035.87937111 -.00000558  00000+0 -16335-2 0  9997
2 51653  87.8913 207.7496 0001686  97.2674 262.8645 13.10370882 97540
